APRIZESAT 2             
1 28366U 04025A   26162.92705070  .00000130  00000+0  53784-4 0  9997
2 28366  98.1009 329.2054 0104259 265.9191  93.0075 14.38033806150885
SAUDICOMSAT 1           
1 28369U 04025D   26162.92902614  .00000327  00000+0  85933-4 0  9992
2 28369  98.5771 172.9186 0032960  41.4031 318.9655 14.55469501163360
SAUDICOMSAT 2           
1 28370U 04025E   26162.94962277  .00000218  00000+0  68069-4 0  9997
2 28370  98.6641 175.0475 0054138 275.7113  83.7908 14.49978249159346
APRIZESAT 1             
1 28372U 04025G   26162.57420999  .00000186  00000+0  57902-4 0  9996
2 28372  98.6304 173.1470 0044760 170.7312 189.4718 14.51774194161097
NANOSAT-1               
1 28493U 04049B   26162.96379517  .00000834  00000+0  11718-3 0  9992
2 28493  98.2269 299.4973 0003085 325.1408  34.9600 14.80149094154671
SAUDICOMSAT 7           
1 31119U 07012C   26162.92586817  .00000377  00000+0  76804-4 0  9993
2 31119  98.3776 136.9499 0054946 211.8504 147.9372 14.66105321 21664
SAUDICOMSAT 6           
1 31121U 07012E   26162.82244823  .00000532  00000+0  11131-3 0  9997
2 31121  98.4097 130.2392 0071444 344.5869  15.3155 14.62551755 19401
SAUDICOMSAT 5           
1 31124U 07012H   26162.90665168  .00000481  00000+0  91292-4 0  9998
2 31124  98.3487 137.6787 0048191 140.9808 219.4889 14.68149908 22829
SAUDICOMSAT 3           
1 31125U 07012J   26162.87639606  .00000716  00000+0  12485-3 0  9990
2 31125  98.3141 138.1966 0040432  69.5044 291.0495 14.70696806 24042
SAUDICOMSAT 4           
1 31127U 07012L   26162.89379819  .00000420  00000+0  87100-4 0  9990
2 31127  98.3980 135.3562 0062055 275.1273  84.2848 14.64507058 20515
APRIZESAT 4             
1 35684U 09041D   26162.79507679  .00000558  00000+0  73264-4 0  9990
2 35684  98.1411 238.0079 0042776 340.8204  19.1397 14.83872183910564
APRIZESAT 3             
1 35686U 09041F   26162.94956931  .00001208  00000+0  10875-3 0  9999
2 35686  98.2053 315.9229 0062750  84.5891 276.2483 14.96224893915592
S-NET D                 
1 43186U 18014G   26162.98582668  .00004294  00000+0  22293-3 0  9994
2 43186  97.5372  67.8093 0009434  46.1406 314.0605 15.16623951457971
S-NET B                 
1 43187U 18014H   26162.73326255  .00004765  00000+0  24717-3 0  9992
2 43187  97.5378  67.5446 0009957  42.2656 317.9343 15.16592344457939
S-NET A                 
1 43188U 18014J   26162.72082206  .00004327  00000+0  22453-3 0  9996
2 43188  97.5388  67.7398 0009847  43.1427 317.0576 15.16629419457936
S-NET C                 
1 43189U 18014K   26162.67113180  .00004973  00000+0  25777-3 0  9996
2 43189  97.5404  67.7643 0011029  35.4781 324.7183 15.16583570456475
SALSAT                  
1 46495U 20068K   26162.97803982  .00007008  00000+0  24606-3 0  9992
2 46495  97.8848 165.7257 0008496 329.8396  30.2352 15.29724756314566
OOV-CUBE (TUBSAT-30)    
1 60240U 24128F   26162.59923854  .00001977  00000+0  15980-3 0  9990
2 60240  61.9950 245.0577 0045327 132.4986 227.9949 15.02751187105272
LPNTSAT-001 (IOD-1)     
1 68408U 26065A   26162.60745465  .00002832  00000+0  14005-3 0  9996
2 68408  97.4031  43.2353 0017269  29.4957 330.7247 15.18509269 11412
